[{"OBJECT_NAME":"YAOGAN-36 02A","OBJECT_ID":"2022-133A","EPOCH":"2026-03-10T00:04:36.049728","MEAN_MOTION":15.23118612,"ECCENTRICITY":0.00301484,"INCLINATION":35.0077,"RA_OF_ASC_NODE":23.5078,"ARG_OF_PERICENTER":29.898,"MEAN_ANOMALY":330.345,"EPHEMERIS_TYPE":0,"CLASSIFICATION_TYPE":"U","NORAD_CAT_ID":54042,"ELEMENT_SET_NO":999,"REV_AT_EPOCH":18962,"BSTAR":0.00070143583,"MEAN_MOTION_DOT":0.00017174,"MEAN_MOTION_DDOT":0},{"OBJECT_NAME":"STARLINK-35338","OBJECT_ID":"2025-245S","EPOCH":"2026-03-09T20:43:36.848352","MEAN_MOTION":15.30211011,"ECCENTRICITY":7.57e-5,"INCLINATION":53.1583,"RA_OF_ASC_NODE":283.0517,"ARG_OF_PERICENTER":104.2506,"MEAN_ANOMALY":255.8579,"EPHEMERIS_TYPE":0,"CLASSIFICATION_TYPE":"U","NORAD_CAT_ID":66250,"ELEMENT_SET_NO":999,"REV_AT_EPOCH":2118,"BSTAR":0.00090178873,"MEAN_MOTION_DOT":0.00026453,"MEAN_MOTION_DDOT":0}]
